{
    "links": {
        "self": "http://www.neowsapp.com/rest/v1/neo/3893232?api_key=iIulBulltgU6a56xZRHN4H3l9WmuAYTsLGpBGhQ2"
    },
    "id": "3893232",
    "neo_reference_id": "3893232",
    "name": "(2019 WF)",
    "designation": "2019 WF",
    "nasa_jpl_url": "http://ssd.jpl.nasa.gov/sbdb.cgi?sstr=3893232",
    "absolute_magnitude_h": 27.0,
    "estimated_diameter": {
        "kilometers": {
            "estimated_diameter_min": 0.0105816886,
            "estimated_diameter_max": 0.023661375
        },
        "meters": {
            "estimated_diameter_min": 10.5816885933,
            "estimated_diameter_max": 23.6613750114
        },
        "miles": {
            "estimated_diameter_min": 0.0065751544,
            "estimated_diameter_max": 0.0147024923
        },
        "feet": {
            "estimated_diameter_min": 34.7168272045,
            "estimated_diameter_max": 77.6291855923
        }
    },
    "is_potentially_hazardous_asteroid": false,
    "close_approach_data": [
        {
            "close_approach_date": "2017-09-20",
            "close_approach_date_full": "2017-Sep-20 18:06",
            "epoch_date_close_approach": 1505930760000,
            "relative_velocity": {
                "kilometers_per_second": "4.3452877981",
                "kilometers_per_hour": "15643.0360732325",
                "miles_per_hour": "9719.9742756149"
            },
            "miss_distance": {
                "astronomical": "0.1411353548",
                "lunar": "54.9016530172",
                "kilometers": "21113548.459774276",
                "miles": "13119350.6605299688"
            },
            "orbiting_body": "Venus"
        },
        {
            "close_approach_date": "2019-11-20",
            "close_approach_date_full": "2019-Nov-20 11:43",
            "epoch_date_close_approach": 1574250180000,
            "relative_velocity": {
                "kilometers_per_second": "11.6391007428",
                "kilometers_per_hour": "41900.7626742067",
                "miles_per_hour": "26035.5044516481"
            },
            "miss_distance": {
                "astronomical": "0.0042128161",
                "lunar": "1.6387854629",
                "kilometers": "630228.315261707",
                "miles": "391605.7161052766"
            },
            "orbiting_body": "Earth"
        },
        {
            "close_approach_date": "2019-11-20",
            "close_approach_date_full": "2019-Nov-20 15:44",
            "epoch_date_close_approach": 1574264640000,
            "relative_velocity": {
                "kilometers_per_second": "10.7680877275",
                "kilometers_per_hour": "38765.1158188834",
                "miles_per_hour": "24087.1354375723"
            },
            "miss_distance": {
                "astronomical": "0.0027237068",
                "lunar": "1.0595219452",
                "kilometers": "407460.735784516",
                "miles": "253184.3609016808"
            },
            "orbiting_body": "Moon"
        },
        {
            "close_approach_date": "2028-10-30",
            "close_approach_date_full": "2028-Oct-30 13:20",
            "epoch_date_close_approach": 1856524800000,
            "relative_velocity": {
                "kilometers_per_second": "20.1454252601",
                "kilometers_per_hour": "72523.5309362174",
                "miles_per_hour": "45063.3017642291"
            },
            "miss_distance": {
                "astronomical": "0.2936190674",
                "lunar": "114.2178172186",
                "kilometers": "43924787.074426438",
                "miles": "27293597.0671353244"
            },
            "orbiting_body": "Earth"
        }
    ],
    "orbital_data": {
        "orbit_id": "6",
        "orbit_determination_date": "2020-09-11 07:45:31",
        "first_observation_date": "2019-11-17",
        "last_observation_date": "2019-11-19",
        "data_arc_in_days": 2,
        "observations_used": 37,
        "orbit_uncertainty": "7",
        "minimum_orbit_intersection": ".00263682",
        "jupiter_tisserand_invariant": "4.029",
        "epoch_osculation": "2459000.5",
        "eccentricity": ".5026099838151328",
        "semi_major_axis": "1.710994293074171",
        "inclination": "5.098363286737904",
        "ascending_node_longitude": "56.43207429894107",
        "orbital_period": "817.4689547815279",
        "perihelion_distance": ".8510314791243772",
        "perihelion_argument": "55.83752092418726",
        "aphelion_distance": "2.570957107023964",
        "perihelion_time": "2458847.312316731924",
        "mean_anomaly": "67.46135820074771",
        "mean_motion": ".4403836964013044",
        "equinox": "J2000",
        "orbit_class": {
            "orbit_class_type": "APO",
            "orbit_class_description": "Near-Earth asteroid orbits which cross the Earth’s orbit similar to that of 1862 Apollo",
            "orbit_class_range": "a (semi-major axis) > 1.0 AU; q (perihelion) < 1.017 AU"
        }
    },
    "is_sentry_object": false
}